{{Infobox Planet  
| name = 367 Amicitia
| image = 
| caption = 
| discovery=yes | physical_characteristics = yes | bgcolour=#FFFFC0
| discovery_ref = 
| discoverer = [[奥古斯特·沙卢瓦|奥古斯特·沙卢瓦]]
| discovery_site = [[尼斯|尼斯]]
| discovered =  1893年5月19日
| mp_name = 367
| alt_names = 1893 AA
| named_after = 友情
| mp_category=[[小行星带|主带小行星]]
| orbit_ref = <ref>[http://ssd.jpl.nasa.gov/sbdb.cgi?sstr=367 367 Amicitia (1893 AA)]</ref>
| epoch = 2011年8月27日
| semimajor= 2.219319448567769AU
| perihelion=2.008088729256825AU
| aphelion=2.430550167878712[[天文单位|AU]]
| eccentricity =0.09517814997172236	
| period =1207.614045060403[[日|地球日]]<br>3.31[[年|地球年]] 
| inclination=2.942182896965578[[角度|°]]
| asc_node=83.47322895749548°	
| arg_peri=55.80738622003836°
| mean_anomaly=6.9671233967624°
| avg_speed=19.99 km/s
 | dimensions=19.13千米
 | mass=
 | density=
 | surface_grav=
 | escape_velocity=
 | rotation=5.05[[小时|小时]]
 | spectral_type=
 | magnitude=
 | abs_magnitude=10.70
 | albedo=0.2535	
 | single_temperature=
}}
'''小行星367'''（'''367 Amicitia'''），是由[[法国|法国]][[天文学家|天文学家]][[奥古斯特·沙卢瓦|奥古斯特·沙卢瓦]]于1893年5月19日在法国[[尼斯|尼斯]]发现的[[小行星带|主带]][[小行星|小行星]]。

小行星367以友情的拉丁文命名。

== 参考资料 ==
{{Reflist}}

{{Minor Planet Number|(366)[[小行星366|小行星366]]|(368)[[小行星368|小行星368]]}}

[[Category:小行星带天体|Category:小行星带天体]]
[[Category:1893年发现的小行星|Category:1893年发现的小行星]]